RAMSAT                  
1 48850U 98067SL  21229.84852125  .00006257  00000-0  11572-3 0  9995
2 48850  51.6430  37.2331 0004149  13.4284 346.6815 15.50447116 10036
SOAR                    
1 48851U 98067SM  21230.07601213  .00027840  00000-0  46057-3 0  9990
2 48851  51.6406  35.7487 0003544 357.4091   2.6879 15.51977564 10114
BD-28                   
1 48867U 98067SN  21230.10463204  .00006388  00000-0  11720-3 0  9990
2 48867  51.6429  35.9452 0003108  49.6895 310.4365 15.50637613  8820
MIR-SAT 1               
1 48868U 98067SP  21229.58946147  .00012308  00000-0  21602-3 0  9992
2 48868  51.6428  38.5037 0002522   8.9222 351.1811 15.50945070  8770
